CCSDS_OEM_VERS = 1.0
CREATION_DATE  = 2026-02-27T13:39:23
ORIGINATOR     = GMAT USER
META_START
OBJECT_NAME          = Code500Sat
OBJECT_ID            = SatId
CENTER_NAME          = Earth
REF_FRAME            = EME2000
TIME_SYSTEM          = UTC
START_TIME           = 2018-01-01T00:00:00.000
USEABLE_START_TIME   = 2018-01-01T00:00:00.000
USEABLE_STOP_TIME    = 2018-01-02T12:00:00.000
STOP_TIME            = 2018-01-02T12:00:00.000
INTERPOLATION        = LAGRANGE
INTERPOLATION_DEGREE = 7 
META_STOP

2018-01-01T00:56:00.000   3.093866847709301e+04   3.343778767395504e+05   1.176252079725970e+05  -6.271642617370605e-01  -6.648126154514361e-01   1.497950903807063e+00
2018-01-01T00:57:00.000   3.089987322327650e+04   3.343400596822528e+05   1.177163576497284e+05  -6.661993534579903e-01  -5.954830035517270e-01   1.539625154225644e+00
2018-01-01T00:58:00.000   3.085870312580429e+04   3.343064494246333e+05   1.178098723689722e+05  -7.063046073540890e-01  -5.246229672113740e-01   1.576772129850479e+00
2018-01-01T00:59:00.000   3.081509782379310e+04   3.342771310897293e+05   1.179054786060390e+05  -7.473517761935834e-01  -4.524556784783951e-01   1.609331333364254e+00
2018-01-01T01:00:00.000   3.076900465065278e+04   3.342521764386463e+05   1.180028996208372e+05  -7.892126080792951e-01  -3.792033533871202e-01   1.637256639529789e+00
2018-01-01T01:01:00.000   3.072037862416914e+04   3.342316439270467e+05   1.181018560886508e+05  -8.317590337591303e-01  -3.050869512838782e-01   1.660515956325897e+00
2018-01-01T01:02:00.000   3.066918240664108e+04   3.342155788867480e+05   1.182020676628460e+05  -8.748642249841294e-01  -2.303244605566876e-01   1.679090293171304e+00
2018-01-01T01:03:00.000   3.061538625638102e+04   3.342040136019845e+05   1.183032530213077e+05  -9.184022200258481e-01  -1.551315205826768e-01   1.692973682731227e+00
2018-01-01T01:04:00.000   3.055896795281105e+04   3.341969675045600e+05   1.184051308416067e+05  -9.622484203115937e-01  -7.972062888092191e-02   1.702172523400993e+00
2018-01-01T01:05:00.000   3.049991270632777e+04   3.341944473753830e+05   1.185074205262849e+05  -1.006279849559317e+00  -4.300737578993235e-03   1.706705042048290e+00
2018-01-01T01:06:00.000   3.043821310762046e+04   3.341964474660958e+05   1.186098427496684e+05  -1.050375257264950e+00   7.092291264263872e-02   1.706601081658891e+00
2018-01-01T01:07:00.000   3.037386882694458e+04   3.342029500908080e+05   1.187121206219386e+05  -1.094415746716758e+00   1.457497327504098e-01   1.701900469673998e+00
2018-01-01T01:08:00.000   3.030688666959243e+04   3.342139255371765e+05   1.188139798179277e+05  -1.138284519050484e+00   2.199834069720087e-01   1.692653605940976e+00
2018-01-01T01:09:00.000   3.023728038432653e+04   3.342293324425511e+05   1.189151493238857e+05  -1.181867145082443e+00   2.934322947601621e-01   1.678920640599382e+00
2018-01-01T01:10:00.000   3.016507051728060e+04   3.342491180801250e+05   1.190153620071994e+05  -1.225051687996985e+00   3.659096076890345e-01   1.660770995357837e+00
2018-01-01T01:11:00.000   3.009028433076860e+04   3.342732185303128e+05   1.191143551152258e+05  -1.267728811611761e+00   4.372335882764489e-01   1.638283236755284e+00
2018-01-01T01:12:00.000   3.001295540007950e+04   3.343015594095353e+05   1.192118709406653e+05  -1.309791849971070e+00   5.072275165412397e-01   1.611543524642286e+00
2018-01-01T01:13:00.000   2.993312369510106e+04   3.343340557551261e+05   1.193076571639941e+05  -1.351136895450855e+00   5.757199181112332e-01   1.580646332791521e+00
2018-01-01T01:14:00.000   2.985083534172842e+04   3.343706124647874e+05   1.194014673649856e+05  -1.391662852603250e+00   6.425446077495920e-01   1.545693747694932e+00
2018-01-01T01:15:00.000   2.976614245177897e+04   3.344111246155517e+05   1.194930614684423e+05  -1.431271486401856e+00   7.075407501734432e-01   1.506795125278497e+00
2018-01-01T01:16:00.000   2.967910300661525e+04   3.344554776932782e+05   1.195822062039832e+05  -1.469867544553319e+00   7.705530610075140e-01   1.464066945587369e+00
2018-01-01T01:17:00.000   2.958978048862845e+04   3.345035482363814e+05   1.196686754004031e+05  -1.507358516920851e+00   8.314313387505033e-01   1.417631936825118e+00
2018-01-01T01:18:00.000   2.949824389704079e+04   3.345552038458736e+05   1.197522504916684e+05  -1.543654945621949e+00   8.900310183266760e-01   1.367619395684491e+00
2018-01-01T01:19:00.000   2.940456751213256e+04   3.346103036088730e+05   1.198327208601307e+05  -1.578670375821637e+00   9.462130615713433e-01   1.314164775183200e+00
2018-01-01T01:20:00.000   2.930883071430528e+04   3.346686984311236e+05   1.199098841990908e+05  -1.612321387759111e+00   9.998439996936450e-01   1.257409466771915e+00
2018-01-01T01:21:00.000   2.921111783298126e+04   3.347302313229518e+05   1.199835469234540e+05  -1.644527700560123e+00   1.050796100302202e+00   1.197500625762552e+00
2018-01-01T01:22:00.000   2.911151785214228e+04   3.347947379069861e+05   1.200535243017905e+05  -1.675211967879167e+00   1.098947006347501e+00   1.134590904422698e+00
2018-01-01T01:23:00.000   2.901012433198866e+04   3.348620465909700e+05   1.201196409913786e+05  -1.704300058238472e+00   1.144180208359644e+00   1.068838368889552e+00
2018-01-01T01:24:00.000   2.890703518694888e+04   3.349319789629447e+05   1.201817312963945e+05  -1.731721029321409e+00   1.186384991914275e+00   1.000406320011842e+00
2018-01-01T01:25:00.000   2.880235249294808e+04   3.350043501410948e+05   1.202396394776794e+05  -1.757407178300964e+00   1.225456516284307e+00   9.294631500357076e-01
2018-01-01T01:26:00.000   2.869618230950192e+04   3.350789691026915e+05   1.202932201161139e+05  -1.781294121289384e+00   1.261295942298478e+00   8.561822185868562e-01
2018-01-01T01:27:00.000   2.858863441841094e+04   3.351556391336729e+05   1.203423381945939e+05  -1.803320774978765e+00   1.293810397913431e+00   7.807416895973933e-01
2018-01-01T01:28:00.000   2.847982218199312e+04   3.352341581067878e+05   1.203868695956629e+05  -1.823429506126874e+00   1.322913223732116e+00   7.033244441654720e-01
2018-01-01T01:29:00.000   2.836986231714604e+04   3.353143188817147e+05   1.204267013183060e+05  -1.841566184453471e+00   1.348524058004778e+00   6.241179502831339e-01
2018-01-01T01:30:00.000   2.825887468269299e+04   3.353959096869559e+05   1.204617317494797e+05  -1.857680267096983e+00   1.370568974374857e+00   5.433141437074755e-01
2018-01-01T01:31:00.000   2.814698207460024e+04   3.354787144931120e+05   1.204918710072227e+05  -1.871724912983449e+00   1.388980675213586e+00   4.611094178470376e-01
2018-01-01T01:32:00.000   2.803430995697631e+04   3.355625134724017e+05   1.205170409299229e+05  -1.883657011370825e+00   1.403698517231146e+00   3.777041318475791e-01
2018-01-01T01:33:00.000   2.792098627701385e+04   3.356470833499891e+05   1.205371755946145e+05  -1.893437366294359e+00   1.414668834963449e+00   2.933028566287155e-01
2018-01-01T01:34:00.000   2.780714121464100e+04   3.357321978433131e+05   1.205522214806401e+05  -1.901030795973227e+00   1.421845097528269e+00   2.081141338964392e-01
2018-01-01T01:35:00.000   2.769290693789979e+04   3.358176280963072e+05   1.205621377033141e+05  -1.906406263701306e+00   1.425188122955611e+00   1.223503337238351e-01
2018-01-01T01:36:00.000   2.757841734558725e+04   3.359031431421952e+05   1.205668963612857e+05  -1.909537131918454e+00   1.424666509044791e+00   3.622765484142797e-02
2018-01-01T01:37:00.000   2.746380782008234e+04   3.359885103156362e+05   1.205664823345721e+05  -1.910400936708431e+00   1.420256212078456e+00  -5.003457600913953e-02
2018-01-01T01:38:00.000   2.734921494094029e+04   3.360734957815973e+05   1.205608939069294e+05  -1.908979934564239e+00   1.411941492215492e+00  -1.362135644038613e-01
2018-01-01T01:39:00.000   2.723477620751487e+04   3.361578650153568e+05   1.205501428361679e+05  -1.905261169087084e+00   1.399715005434615e+00  -2.220834172666190e-01
2018-01-01T01:40:00.000   2.712062974652797e+04   3.362413833146436e+05   1.205342545327196e+05  -1.899236659879803e+00   1.383578109392174e+00  -3.074153847194647e-01
2018-01-01T01:41:00.000   2.700691395004997e+04   3.363238164374562e+05   1.205132683669715e+05  -1.890903838570124e+00   1.363541582534743e+00  -3.919782021230594e-01
2018-01-01T01:42:00.000   2.689376735433322e+04   3.364049307923592e+05   1.204872373215035e+05  -1.880264958594019e+00   1.339624615716614e+00  -4.755381911864033e-01
2018-01-01T01:43:00.000   2.678132811349283e+04   3.364844943733972e+05   1.204562286090521e+05  -1.867328119072521e+00   1.311856514284267e+00  -5.578598423431287e-01
2018-01-01T01:44:00.000   2.666973371347802e+04   3.365622772481033e+05   1.204203236300868e+05  -1.852107258620574e+00   1.280276665655189e+00  -6.387061648416523e-01
2018-01-01T01:45:00.000   2.655912061532787e+04   3.366380521724232e+05   1.203796180485673e+05  -1.834622388629573e+00   1.244934906130294e+00  -7.178391543145951e-01
2018-01-01T01:46:00.000   2.644962375318129e+04   3.367115954536314e+05   1.203342218931212e+05  -1.814900040607641e+00   1.205892215404043e+00  -7.950208668081967e-01
2018-01-01T01:47:00.000   2.634137659494206e+04   3.367826868411164e+05   1.202842593746248e+05  -1.792972771085137e+00   1.163219946405020e+00  -8.700121747256934e-01
2018-01-01T01:48:00.000   2.623451029641218e+04   3.368511109766483e+05   1.202298690512401e+05  -1.768880114893881e+00   1.117001293701157e+00  -9.425752866090270e-01
2018-01-01T01:49:00.000   2.612915341932906e+04   3.369166578699438e+05   1.201712037026296e+05  -1.742668587869826e+00   1.067331283243876e+00  -1.012473951657077e+00
2018-01-01T01:50:00.000   2.602543150665425e+04   3.369791236170764e+05   1.201084302151376e+05  -1.714391887329907e+00   1.014317061826767e+00  -1.079474276348914e+00
2018-01-01T01:51:00.000   2.592346648920263e+04   3.370383113927621e+05   1.200417292526565e+05  -1.684110994186909e+00   9.580779683793236e-01  -1.143346441059281e+00
